name,id,latitude,longitude,address,working_day,name_en,address_en,working_day_en
บ้านชาติ,IC52098,13.76018,100.496414,98 ถนนจักรพงษ์ แขวงตลาดยอด เขตพระนคร กทม. 10200,จันทร์-อาทิตย์ 07.00-02.00 น. ,Bann Chart,"98 Chakrabongse Road Talat elite Metroplitan, Bangkok 10200",Monday-Sunday 07.00-02.00 
เอ็มบีเค ชั้น G,IC52131,13.74486,100.52978,444  มาบุญครองเซ็นเตอร์ ชั้น G ถนนพญาไท แขวงวังใหม่ เขตปทุมวัน กรุงเทพมหานคร 10330,จันทร์-อาทิตย์ 10.00-21.00 น. ,MBK G FLOOR,"445 G FL. MBK center Building Phayathai,Wangmai, Phatumwan, Bangkok 10330",Monday-Sunday 10.00-21.00 
สยาม พารากอน,IC277842,13.7468792,100.5348963,ศูนย์การค้าสยามพารากอน เลขที่ 991 ถนนพระราม 1 แขวงปทุมวัน เขตปทุมวัน จังหวัดกรุงเทพมหานคร 10330,จันทร์-อาทิตย์ 10.00-22.00 น. ,Siam Paragon,"No.991 Siam Paragon Bldg., Rama 1 Rd., Patumwan, Bangkok 10330",Monday-Sunday 10.00-22.00 
มณเฑียร สุรวงศ์,IC52133,13.730114,100.531674,เลขที่ 50 ถนนสุรวงศ์ แขวงสี่พระยา เขตบางรัก กรุงเทพ,จันทร์-อาทิตย์ 07.00-02.00 น. ,MONTIEN SURAWONG,50 Surawong Road Si Pra Ya Bang Ruk Bangkok,Monday-Sunday 07.00-02.00 
ซีพี ทาวเวอร์,IC114453,13.72766,100.532413,313 ถนนสีลม แขวงสีลม เขตบางรัก กรุงเทพ 10500,จันทร์-ศุกร์ 07.00-23.00 น. เสาร์-อาทิตย์ 8.00-23.00 น. ,CP Tower,"313 Silom Road, Silom, Bang Rak, Bangkok 10500",Monday-Friday 07.00-23.00 Saturday-Sunday 8.00-23.00 
แกรนด์ไดม่อน ,IC52121,13.7503628,100.53843,888 ถนนเพชรบุรี เพขรบุรี เขตราชเทวี กรุงเทพฯ 10400,จันทร์-อาทิตย์ 07.00-02.00 น. ,GRAND DIAMOND,"888 Petchaburi Road,Petchaburi, Ra Bangkok, Thailand 10400",Monday-Sunday 07.00-02.00 
สีลม,IC52162,13.7290434,100.535232,10 ถ.สีลม สุรวงศ์ บางรัก กทม. 10500,จันทร์-อาทิตย์ 7.00-24.00 น. ,Silom,10 Silom Surawong Bangruk Bangkok 10500,Monday-Sunday 7.00-24.00 
นานา สแควร์,IC52136,13.742665,100.552583,นานาสแควร์  49 ถนน สุขุมวิท ซอย 3 คลองเตยเหนือ เขตวัฒนา กรุงเทพฯ 10110,จันทร์-อาทิตย์ 10.00-24.00 น. ,NANA SQUARE,Nana Square 1st Fl.Sukhumvit 49 Klong Toey Wattana 10110,Monday-Sunday 10.00-24.00 
ริเวอร์ไซด์ พลาซ่า,IC52102,13.7051638,100.490587,257 ถนนเจริญนคร แขวงสำเหร่ เขตธนบุรี กรุงเทพฯ 10600,จันทร์-อาทิตย์ 07.00-24.00 น. ,Riverside Plaza,"No.257 ,Room 107 ,Charoennakorn Road ,Samrae ,Thonburi 10600",Monday-Sunday 07.00-24.00 
สุขุมวิท 11,IC89861,13.741752,100.556504,โรงแรมแอมบาสซาเดอร์กรุงเทพ ถนน สุขุมวิท ซอย 11 แขวงคลองเตยเหนือ เขตวัฒนา จังหวัดกรุงเทพมหานคร 10110,จันทร์-อาทิตย์ 07.00-00.00 น. ,Sukhumvit 11,"Ambassador Hotel Bangkok, Sukhumvit Soi 11, Khlongtoey Nua, Wattana, Bangkok 10110",Monday-Sunday 07.00-00.00 
สุขุมวิท 15,IC89862,13.738751,100.55836,โรงแรม S15 กรุงเทพ เลขที่ 217 ซอยสุขุมวิท 15 คลองเตยเหนือ เขตวัฒนา กรุงเทพมหานคร 10110,จันทร์-อาทิตย์ 09.00-23.00 น. ,Sukhumvit 15,"S15 Hotel, Room 217, Sukhumvit Soi 15, Khlongtoey Nua, Wattana, Bangkok 10110",Monday-Sunday 09.00-23.00 
เชลล์ อโศก,IC57214,13.7431667,100.5623333,สถานีบริการเชลล์ ถ.อโศกมนตรี คลองเตยเหนือ วัฒนา กทม. 10110,จันทร์-อาทิตย์ 07.00-02.00 น. ,Shell Asoke,"Shell Service Station, Asok Montri Road, Khlong Toei Nuea, Wattana, Bangkok 10110",Monday-Sunday 07.00-02.00 
ศูนย์ประชุมแห่งชาติสิริกิติ์,IC295801,13.7240492,100.5588048,ศูนย์ประชุมแห่งชาติสิริกิติ์ ฟู๊ดฮอลล์ เลขที่ 60 ถ. รัชดาภิเษก แขวง คลองเตย เขตคลองเตย กรุงเทพมหานคร 10110,จันทร์-อาทิตย์ 07.00-21.30 น. ,QSNCC,"Queen Sirikit National Convention Center Food Hall QSNCC No.60 Ratchadapisek road, Khlongtoey, Bangkok 10110",Monday-Sunday 07.00-21.30 
ปตท. พรานนก (ขาเข้า),IC55555,13.75299,100.447969,ปตท. พรานนก ชั้น1   ถ. พระเทพ แขวงบางพรม เขตตลิ่งชั่น กทม. 10170,จันทร์-อาทิตย์ 7.00-22.00 น. ,PTT PRANNOK KANCHANAPISEK (IB),"PTT Prannok, 1st Floor, Phra Thep Road, Bang Phrom Subdistrict, Taling Chan District, Bangkok 10170",Monday-Sunday 7.00-22.00 
เอ็มโพเรียม,IC52108,13.730558,100.568627,622 ถนน สุขุมวิท แขวง คลองตัน เขต คลองเตย กรุงเทพมหานคร 10110,ทุกวัน 10.00 - 21.00 น.,EMPORIUM,"622 Sukhumvit, Klongton, Wattana, Bangkok 10110",Every Day 10.00 - 21.00
เอ็มควอเทียร์,IC52109,13.7310677,100.5693884,689 ถ.สุขุมวิท แขวงคลองตันเหนือ เขตวัฒนา กรุงเทพฯ 10110,จันทร์-อาทิตย์ 10.00-21.00 น. ,EMQUARTIER,689 sukhumvith road kiongtannua Khet Watthana Bangkok 10110,Monday-Sunday 10.00-21.00 
เอสโซ่ เพชรบุรี (ขาเข้า),IC69438,13.746888,100.57232,สถานีบริการเอสโซ่ 1938/1 ถนนเพชรบุรี บางกะปิ ห้วยขวาง กทม. 10310,จันทร์-อาทิตย์ 07.00-02.00 น. ,ESSO PHETBURI ROAD IB,"Esso Service Station 1938/1 Phetchaburi Road, Bang Kapi, Huai Khwang, Bangkok 10310",Monday-Sunday 07.00-02.00 
ปตท. พรานนก,IC52148,13.751755,100.441894,สถานีบริการปตท พรานนก  เลขที่ 511/2 ถนนพรานนก-พุทธมณฑล สาย 4 แขวงบางพรม เขตตลิ่ชัน กรุงเทพมหานคร 10170,จันทร์-อาทิตย์ 07.00-22.00 น. ,PTT PRANOK KANCHANAPISEK,PTT Prannok Puthamonthon Sai 4 Bangphrom Talingchan 10170,Monday-Sunday 07.00-22.00 
เดอะ สตีท รัชดา,IC52167,13.76984,100.5723,139 ถนนรัชดาภิเษก แขวงดินแดง เขตดินแดง กรุงเทพฯ 10400,จันทร์-อาทิตย์ 07.00-02.00 น. ,THE STREET RATCHADA,139 Ratchadapisek Road Din Daeng Din Daeng Bangkok 10400,Monday-Sunday 07.00-02.00 
ทองหล่อ,IC52168,13.7283185,100.580993,Market Place ทองหล่อ 148 สุขุมวิท 55 แขวงคลองตันเหนือ เขตวัฒนา กทม 10110,จันทร์-อาทิตย์ 07.00-02.00 น. ,Thonglor,Market Place Thonglor 148 Sukumvit 55 Klongton Nuea Wattana BKK 10110,Monday-Sunday 07.00-02.00 
โรงพยาบาลกรุงเทพ,IC177910,13.748351,100.583781,เลขที่ 2 ซอยศูนย์วิจัย7 ถนนเพชรบุรี แขวงบางกะปิ เขตห้วยขวาง กทม.10310,จันทร์-อาทิตย์ 07.00-22.00 น. ,Bangkok Hospital,"2 Soi soonvijai7, Phetburi road, Bangkapi, Huaikhwang, Bangkok 10310",Monday-Sunday 07.00-22.00 
คาลเท็กซ์ ประชานุกูล,IC52104,13.83065,100.54354,ถนน รัชดาภิเษก แขวงลาดยาว เขตจตุจักร กรุงเทพมหานคร 10900,จันทร์-อาทิตย์ 07.00-02.00 น. ,CALTEX PRACHANUKUN,"Ratchadaphisek Rd, Lat Yao, Chatuchak, Bangkok 10900",Monday-Sunday 07.00-02.00 
ประชาอุทิศ 45,IC255628,13.652036,100.496972,83/2 ถ.ประชาอุทิศ ซ.ประชาอุทิศ45 แขวงบางมด เขตทุ่งครุ กทม. 10140,จันทร์-อาทิตย์ 07.00-23.00 น. ,PrachaUthit 45,"83/2 PrachaUthit road, Soi PrachaUthit 45 ,Bangmod Thungkru Bangkok 10140",Monday-Sunday 07.00-23.00 
เดอะ ไบร์ท,IC52164,13.6692147,100.4515239,ห้างสรรพสินค้าเดอะไบท์ 15/9 ถนนพระราม 2 แขวงท่าข้าม เขตบางขุนเที่ยน กรุงเทพมหานคร 10150,จันทร์-อาทิตย์ 07.00-02.00 น. ,THE BRIGHT,"The Bright mall 15/9 Rama2 Rd. Thakam,Bangkhunthain, Bangkok 10150",Monday-Sunday 07.00-02.00 
เรส เอเรีย ประชาชื่น,IC52150,13.8405586,100.5343598,ทางด่วนประชื่นขาออก  แขวง วงศ์สว่าง เขต บางซื่อ กทม. 10800,ทุกวัน day 7.00-23.45 น.,REST AREA PRACHACHUEN,"Wong Sawang, Bang Sue, Bangkok 10800",Every day 7.00-23.45
รัชดา,IC305053,13.8196513,100.5753607,ถนนรัชดาภิเษก แขวงจันทรเกษม เขตจตุจักร กทม. 10110,จันทร์-อาทิตย์ 07.00-02.00 น. ,Ratchada,"Ratchadaphisek road, Chan Kasem sub-district, Chatuchak district, Bangkok 10110",Monday-Sunday 07.00-02.00 
สุขุมวิท 52,IC87647,13.704338,100.601415,เลขที่ 1750 ถนนสุขุมวิท52 แขวงพระโขนงใต้ เขตพระโขนง กรุงเทพมหานคร 10260,จันทร์-อาทิตย์ 07.00-02.00 น. ,Sukhumvit 52,-,Monday-Sunday 07.00-02.00 
เชลล์ กาญจนาภิเษก,IC52157,13.766931,100.4078373,สถานีบริการเชลล์ ถนนกาญจนาภิเษก กม 28 ศาลาธรรมสพน์ ตลิ่งชั้น กรุงเทพฯ 10170,จันทร์-อาทิตย์ 07.00-02.00 น. ,SHELL KANCHANAPISEK KM 28,Shell Kanchanapisek KM 28 Salathammasok Talingchan 10170,Monday-Sunday 07.00-02.00 
ปตท. ตลิ่งชัน,IC126418,13.774401,100.407446,ปตท.ตลิ่งชัน ขาออก ถนนกาญจนาภิเษก แขวงศาลาธรรมสพน์ เขตทวีวัฒนา กทม.10170,จันทร์-อาทิตย์ 07.00-23.00 น. ,PTT Talingchan OB,"PTT Talingchan,  Kanchanaphisek Road, Sala Thammasop, Thawi Watthana, Bangkok 10170",Monday-Sunday 07.00-23.00 
บางจาก พัฒนาการ 27,IC52100,13.7373487,100.6178184,1405 ถนนพัฒนาการ แขวงสวนหลวง เขตสวนหลวง กรุงเทพมหานคร 10250,จันทร์-อาทิตย์ 0.00-24.00 น. ,BANGCHAK PATTANAKARN 27,"1405 Phatthanakarn Rd. Suanluang, Bangkok 10250",Monday-Sunday 0.00-24.00 
เรสแอเรียบางนา,IC139528,13.68655,100.601717,"สถานีบริการปตท.เรสแอเรีย บางนา ขาเข้า 134 สุขุมวิท64 แยก10,พระโขนงใต้,พระโขนง กทม.10260",จันทร์-อาทิตย์ 7.00-22.00 น. ,REST AREA BANGNA IB,"PTT Service Area Bangna Service Station, Inbound 134 Sukhumvit 64, Junction 10, Phra Khanong Tai, Phra Khanong, Bangkok 10260",Monday-Sunday 7.00-22.00 
ปตท. บางนา (ขาออก),IC52144,13.6861,100.60275,ปตท. บางนา 102 ซอยสุขุมวิท64 แขวงบางจาก เขตพระโขนง กรุงเทพมหานคร 10260,จันทร์-อาทิตย์ 07.00-02.00 น. ,PTT BANGNA EXPRESSWAY (OB),"PTT Bangna, 102 Soi.sukhumvit 64,Bangchak, Phra Khanong, Bangkok 10260",Monday-Sunday 07.00-02.00 
เอสโซ่ บางแค,IC52110,13.7091301,100.396961,สถานีบริการเอสโซ่ เลขที่ 1395 ถนนเพชรเกษม แขวงบางแค เขตบางแค กรุงเทพมหานคร 10160,จันทร์-อาทิตย์ 7.00-22.00 น. ,ESSO BANGKAE,Esso Gas Station  Bangkea 1395 Petchkasem Road Bangkae 10160,Monday-Sunday 7.00-22.00 
คาลเท็กซ์ งามวงศ์วาน 45,IC262694,13.8542668,100.5500822,คาลเทกซ์ งามวงศ์วาน ถ.งามวงศ์วาน แขวงทุ่งสองห้อง เขตหลักสี่ กทม.10210,จันทร์-อาทิตย์ 07.00-23.00 น. ,Caltex Ngamwongwan 45,"CALTEX NGAMWONGWAN, Ngamwongwan Road Thungsonghong Laksi Bangkok 10210",Monday-Sunday 07.00-23.00 
โลตัส ลาดพร้าว 120,IC56254,13.7780938,100.623335,2410 ถนนลาดพร้าว แขวงพลับพลา เขตวังทองหลาง จังหวัดกรุงเทพมหานคร 10310,จันทร์-อาทิตย์ 07.00-02.00 น. ,Lotus Lardprao 120,"2410 Lat Phrao Road, Phlapphla District, Wang Thonglang District Province, Bangkok 10310",Monday-Sunday 07.00-02.00 
บางจาก กาญจนาภิเษก,IC52099,13.6710808,100.4050532,เลขที่ 95/2 ถนนกาญจนาภิเษก แขวงบางบอน เขตบางบอน กรุงเทพมหานคร 10150,จันทร์-อาทิตย์ 07.00-24.00 น. ,BANGCHAK KANCHANAPISEK (DT),95/2 Kanchanapisek Road Bangbon 10150,Monday-Sunday 07.00-24.00 
เชลล์ เวสต์เกต,IC158030,13.835341,100.414,เชลล์ เวสเกต ถนนกาญจนาภิเษก บางเมือง อ.บางใหญ่ แจ้งวัด นนทบุรี 11140,จันทร์-อาทิตย์ 07.00-24.00 น. ,Shell Westgate,"Shell Westgate, 25/50 หมู่ 11 Bang Muang, Bang Yai District, Nonthaburi 11140",Monday-Sunday 07.00-24.00 
เดอะ มอลล์ บางกะปิ,IC139526,13.765787,100.6425,3522 ถนนลาดพร้าว แขวงคลองจัน เขตบางกะปิ กรุงเทพฯ 10240,จันทร์-ศุกร์ 10.00-20.30 น. เสาร์-อาทิตย์ 10.00-21.00 น. ,The Mall Bangkapi,3522 Lardprao Road KlongJan Bangkapi Bangkok 10240,Monday-Friday 10.00-20.30 Saturday-Sunday 10.00-21.00 
พาราไดซ์ พาร์ค,IC52137,13.687742,100.647632,61 ชั้นG ศูนย์การค้าพาราไดซ์ พาร์ค ถนนศรีนคริทร์ แขวงหนองบอน เขตประเวศ กทม.10250,จันทร์-อาทิตย์ 10.30-21.00 น. ,Paradise Park,61 G Fl. Paradise Department Store Srinakarin Rd Bangbon Pravet 10250,Monday-Sunday 10.30-21.00 
ลิตเติ้ล วอร์ค บางนา,IC52129,13.667485,100.639228,เลขที่ 769/1 ถนนบางนา-ตราด แขวงบางนา เขตบางนา กรุงเทพมหานคร 10260,จันทร์-อาทิตย์ 07.00-02.00 น. ,Little Walk Bangna,769/1 Bangna -Trad Road  Bangna 10260,Monday-Sunday 07.00-02.00 
เอสโซ่ เพชรเกษม 108 (ขาเข้า),IC71493,13.707041,100.352758,เอสโซ่ เพชรเกษม108 ขาเข้า แขวงหนองค้างพลู เขตหนองแขม กทม. 10160,จันทร์-อาทิตย์ 7.00-22.00 น. ,ESSO PHETKASEM 108 IB,"Esso Gas Station Petchkasem 108 Nong Khang Phlu, Nong Khaem, Bangkok 10160",Monday-Sunday 7.00-22.00 
เชลล์ ราชพฤกษ์ (ขาออก),IC52159,13.891053,100.449789,สถานีบริการเชลล์ ถนนราชพฤกษ์ ตำบลท่าอิฐ อำเภอปากเกร็ด จังหวัดนนทบุรี 11120,จันทร์-อาทิตย์ 07.00-02.00 น. ,SHELL RATCHAPRUK (OB),Shell Ratchapruk Ta-It Pakkred Nonthaburi 11120,Monday-Sunday 07.00-02.00 
ปตท. เดอะ ดีล แจ้งวัฒนะ,IC158028,13.889204,100.572903,ปตท.เดอะดีล แจ้งวัฒนะ 99/114 ถ.แจ้งวัฒนะ แขวงทุ่งสองห้อง เขตหลักสี่ กทม.10210,จันทร์-อาทิตย์ 07.00-24.00 น. ,PTT The Deal Chaengwattana,"PTT The Deal Chaengwattana 99/114 Chaengwattana Rd., Thung Song Hong, Lak Si, Bangkok 10210",Monday-Sunday 07.00-24.00 
เชลล์ แจ้งวัฒนะ,IC52156,13.9050128,100.5229999,ถนนแจ้งวัฒนะ อำเภอปากเกร็ด จังหวัดนนทบุรี 11120,จันทร์-อาทิตย์ 07.00-02.00 น. ,SHELL CHANGWATTANA,"Chaengwattana Rd, Pak Kret, Nonthaburi 11120",Monday-Sunday 07.00-02.00 
แจส ศรีนครินทร์ ,IC52125,13.6353045,100.631813,ห้อง101 ศูนย์การค้าแจส เออเบิร์น ศรีนครินทร์ 788 หมู่ 5 ตำบลสำโรงเหนือ อำเภอเมืองสมุทรปราการ จังหวัดสมุทรปราการ 10270,จันทร์-อาทิตย์ 7.00-24.00 น. ,JAS SRINAKARIN,ห้อง101 ศูนย์การค้าแจส เออเบิร์น ศรีนครินทร์ 788 หมู่ 5 ตำบลสำโรงเหนือ อำเภอเมืองสมุทรปราการ จังหวัดสมุทรปราการ 10270,Monday-Sunday 7.00-24.00 
อิมแพ็ค เมืองทองธานี ,IC52124,13.9118676,100.5475251,เดอะพอทัล อิมเพคเมืองทองธานี เลขที่ 92 ถนนป๊อปปูล่า ตำบลบ้านใหม่ อำเภอปากเกล็ด จังหวัดนนทบุรี 11120,จันทร์-อาทิตย์ 9.00-02.00 น. ,IMPACT MUANGTHONG,เดอะพอทัล อิมเพคเมืองทองธานี เลขที่ 92 ถนนป๊อปปูล่า ตำบลบ้านใหม่ อำเภอปากเกล็ด จังหวัดนนทบุรี 11120,Monday-Sunday 9.00-02.00 
เอสโซ่ รามอินทรา กม. 6.5,IC52117,13.8457418,100.6506651,46/131 ถ.รามอินทรา แขวง ท่าแร้ง เขต บางเขน กรุงเทพฯ 10220,จันทร์-อาทิตย์ 07.00-02.00 น. ,ESSO RAMINTRA KM 6.5,6/131 Rd.Ramintra subdistrict Tarrang District BangKhane Bangkok 10220,Monday-Sunday 07.00-02.00 
ปตท. กรุงเทพกรีฑา (ขาออก),IC255694,13.7522757,100.6864822,ปตท กรุงเทพกรีฑา เลขที่ 18/4 ถ.กาญจนาภิเษก แขวงทับช้าง เขตสะพานสูง กทม. 10250,จันทร์-อาทิตย์ 07.00-22.00 น. ,PTT Krungthepkritha (OB),"PTT Krungthepkritha 18/4 Kanchanaphisek road Thap Chang Subdistrict,Saphan Sung District BKK 10250",Monday-Sunday 07.00-22.00 
เดอะ โฟร์ท พุทธมณฑล สาย 4,IC271230,13.75903,100.32988,เลขที่ 111/31 เดอะโฟร์ท พุทธมณฑล สาย4 ถนนพุทธมณฑล สาย 4 แขวงกระทุ่มล้ม เขตสามพราน จ.นครปฐม 73220,จันทร์-อาทิตย์ 07.00-22.00 น. ,The Fourth Putthamonthon Sai 4,"No. 111/31 The Fourth  Putthamonthon Sai 4 Rd, Krathum Lom, Sam Phran District, Nakhon Pathom 73220",Monday-Sunday 07.00-22.00 
เชลล์ บางนา กม. 6.5,IC313909,13.6596966,100.665375,เลขทึ่ 7/19 หมู่1 4 ถ.บางนา-ตราด ต.บางแก้ว อ.บางพลี จ.สมุทรปราการ 10540,จันทร์-อาทิตย์ 07.00-24.00 น. ,Shell Bangna KM. 6.5,"No. 7/19 Bang-na trat Frontage road, Bang Kaeo, Amphoe Bang Phli, Chang Wat, Samut Prakan 10540",Monday-Sunday 07.00-24.00 
เอสโซ่ บางนา กม.8 (ขาเข้า),IC52111,13.6517455,100.677276,7/304  ม.13 ถ.บางนาตราด  กม.8 ต.บางแก้ว  อ.บางพลี  จ.สมุทรปราการ 10540,จันทร์-อาทิตย์ 07.00-22.00 น. ,ESSO BANGNA KM . 8 INBOUND,"7/304 moo.13 Bangna Trad Rd. Bang Keaw Bang Pli, Samutprakarn 10540",Monday-Sunday 07.00-22.00 
เมกาบางนา,IC139518,13.648124,100.680575,"1220 ชั้น 1 เมกา บางนา เลขที่ 38,38/1-3 ,39 ถนนบางนาตราด กม 8 ตำบลบางแก้ว อำเภอ บางพลี สมุทรปราการ 10540",จันทร์-อาทิตย์ 10.00-22.00 น. ,MEGA BANGNA,"1220 Floor 1 36,38/1-3,39 Bangna Trad Rd. Bang Keaw Bang Pli, Samutprakarn 10540",Monday-Sunday 10.00-22.00 
ท่าอากาศยานดอนเมือง การ์เด้น,IC52179,13.9173449,100.6006982,ท่าอากาศยานดอนเมือง : เทอร์มินอล 2 ภายในประเทศ (แลนด์ไซด์ ชั้น 1 การ์เด้น),ทุกวัน 05.00-23.00 น.,BK_DMK GARDEN,"Don Mueang Airport - Terminal 2 Domestic (Landside : Garden/Arrivals Floor, 1st Floor)",Every day 05.00-23.00
แจส กรีน วิลเลจ คู้บอน,IC257436,13.85644,100.68032,แจส กรีน วิลเลจ ถนน คู้บอน แขวง บางชัน เขตคลองสามวา กรุงเทพมหานคร 10510,จันทร์-อาทิตย์ 07.00-02.00 น. ,Jas Green Village Khubon,"Jas Green Village, Khubon Road, Bangchan, Klongsamwa, Bangkok 10510",Monday-Sunday 07.00-02.00 
ลิตเติ้ล วอล์ค ลาดกระบัง,IC305052,13.722397,100.725919,เลขที่ 597/1 ห้องเลขที่ LWLBF1C-C1 อาคารศูนย์การค้า LITTE WALK สาขาลาดกระบัง ถนนลาดกระบัง แขวงลาดกระบัง เขตลาดกระบัง กรุงเทพ 10520,จันทร์-อาทิตย์ 07.00-23.00 น. ,Little Walk Ladkrabang,No.597/1 Room LWLBF1C-C1 Little Walk Ladkrabang  Ladkrabang road district Ladkrabang Bangkok 10520,Monday-Sunday 07.00-23.00 
เอสโซ่ พหลโยธิน กม 25,IC52114,13.932044,100.625953,สถานีบริการเอสโซ่ ถนนพหลโยธินก.ม 25 แขวงสายไหม เขตสายไหม กรุงเทพมหานคร 10220,จันทร์-อาทิตย์ 07.00-23.00 น. ,ESSO PHAHOLYOTHIN KM 25,Esso Phaholyothin KM 25 Saimai 10220,Monday-Sunday 07.00-23.00 
เชลล์ ร่มเกล้า,IC52160,13.741187,100.747145,25/2 ซอยร่มเกล้า แขวงลาดกระบัง เขตลาดกระบัง กรุงเทพฯ 10521,จันทร์-อาทิตย์ 07.00-23.00 น. ,SHELL ROMKLAO,"Shell Gas Station Soi RomKlao 25/2 Romklao Road Ladkrabang, Bangkok",Monday-Sunday 07.00-23.00 
ท่าอากาศยานสุวรรณภูมิ คอนคอร์ด เอฟ,IC52173,13.6929971,100.7463311,ท่าอากาศยานสุวรรณภูมิ (แอร์ไซด์ คอนคอร์ด เอฟ ชั้น 4),ทุกวัน ตลอด 24 ชม.,BK_SBIA F,"Suvarnabhumi Airport (Airside Concourse F, 4th Floor)",Every day 24 hrs.
ท่าอากาศยานสุวรรณภูมิ คอนคอร์ด ฟู้ดสต๊อป,IC52174,13.69154,100.7482888,ท่าอากาศยานสุวรรณภูมิ (แอร์ไซด์ คอนคอร์ด เอ โซนฟู้ดสต๊อป ชั้น 2),ทุกวัน 05.00-22.00 น.,BK_SBIA FS,"Suvarnabhumi Airport (Airside Concourse A(Food Stop), 2nd Floor)",Every day 05.00-22.00
ท่าอากาศยานสุวรรณภูมิ เมน เทอร์มินอล ชั้น 3,IC52175,13.694201,100.75188,ท่าอากาศยานสุวรรณภูมิ (แลนด์ไซด์ เมน เทอร์มินอล ชั้น 3),ทุกวัน ตลอด 24 ชม.,BK_SBIA L3,"Suvarnabhumi Airport (Landside Main Terminal, 3rd Floor)",Every day 24 hrs.
สายไหม มอลล์,IC99907,13.921011,100.680147,"No. 599 Sai Mai Rd, Khwaeng Sai Mai, Sai Mai, Bangkok 10220",จันทร์-อาทิตย์ 07.00-22.00 น. ,Sai Mai Mall,เลขที่ 599 ถ. สายไหม แขวง สายไหม เขตสายไหม กรุงเทพมหานคร 10220,Monday-Sunday 07.00-22.00 
เอสโซ่ รังสิต (ขาออก),IC52118,13.967482,100.618598,เลขที่ 293 หมู่ที่ 13 ถนนพหลโยธิน ตำบลคูคต อำเภอลำลูกกา จังหวัดปทุมธานี  12130,จันทร์-อาทิตย์ 07.00-02.00 น. ,ESSO RANGSIT OUTBOUND,293 /13 Phaholyothin Road Khu Khot sub district  Lam Luk Ka  Pathum Thani 12130,Monday-Sunday 07.00-02.00 
ท่าอากาศยานสุวรรณภูมิ คอนคอร์ด บี,IC52172,13.675851,100.762196,ท่าอากาศยานสุวรรณภูมิ (แอร์ไซด์ คอนคอร์ด บี ชั้น 4),ทุกวัน ตลอด 24 ชม.,BK_SBIA B,"Suvarnabhumi Airport (Airside Concourse B, 4th Floor)",Every day 24 hrs.
ปตท. เภตรา,IC139524,14.007111,100.553678,ปตท. เภตรา ชั้น1  140 หมู่2 ถ. ติวานนท์ ต. บ้านกลาง อ. เมือง จ. ปทุมธานี 12000,จันทร์-อาทิตย์ 7.00-22.00 น. ,PTT Petra,"PTT Petra, 1st Floor, 140 Moo 2, Tiwanon Road, Ban Klang Subdistrict, Muang District, Pathum Thani 12000",Monday-Sunday 7.00-22.00 
เอสโซ่ พระราม 2 กม 25 (ขาออก),IC52115,13.5711327,100.2916849,สถานีบริการเอสโซ่ ถนนพระราม 2 กม25 ตำบลนาดี อำเภอเมืองสมุทรสาคร จังหวัดสมุทรสาคร 74000,จันทร์-อาทิตย์ 7.00-22.00 น. ,ESSO RAMA 2 KM 25 (OB),Esso Gas Station  Rama2 Road KM25  Bangkajao Samut Sakhon 74000,Monday-Sunday 7.00-22.00 
ปตท. สุวินทวงศ์ (ขาเข้า),IC55554,13.80934,100.806974,เลขที่ 89/9 หมู่ 8 แขวงโคกแฝด เขตหนองจอก กรุงเทพมหานคร 10530,จันทร์-อาทิตย์ 7.00-22.00 น. ,PTT SUWINTHAWONG (IB),"No. 89/9 Moo 8, Khok Faet Subdistrict, Nong Chok District, Bangkok 10530",Monday-Sunday 7.00-22.00 
คาลเท็กซ์ รังสิต คลอง 3,IC158029,13.997096,100.670699,ปั๊มน้ำมันคาลเทกซ์ รังสิตคลอง3 ขาออก ต.บึงยี่โถ อ.ธัญบุรี ปทุมธานี 12130,จันทร์-อาทิตย์ 07.00-24.00 น. ,Caltex Rangsit Klong 3,"Caltex Rangsit Klong3 OB, Bueng Yitho, Thanyaburi District, Pathum Thani 12130",Monday-Sunday 07.00-24.00 
เอสโซ่ นครชัยศรี,IC52113,13.7781303,100.1770467,สถานีบริการเอสโซ่ เลขที 30/13 หมู่ 4 ตำบลท่าตำหนัก อำเภอนครชัยศรี จังหวัดนครปฐม 73120,จันทร์-อาทิตย์ 7.00-22.00 น. ,ESSO NAKORNCHAISRI,Esso Nakornchaisri 30/13 Moo 4 Tathamnak Nokornchaisri Nakornpathom 73120,Monday-Sunday 7.00-22.00 
เอสโซ่ พระราม 2 กม 35 (ขาเข้า),IC52116,13.5328379,100.2069318,สถานีบริการเอสโซ่ ถนน พระราม 2 กม 35 อำเภอบางกระเจ้า จังหวัดสมุทรสาคร 74000,จันทร์-อาทิตย์ 7.00-22.00 น. ,ESSO RAMA 2 KM 35 (IB),Esso Gas Station  Rama2 Road  Bangkajao Samut Sakhon 74000,Monday-Sunday 7.00-22.00 
ปตท. บางนา-ตราด กม.27 ขาเข้า,IC141866,13.58572,100.8434,340/1 หมู่1 ถ.บางนาตราด ตำบลบางบ่อ อำเภอบางบ่อ จังหวัดสมุทรปราการ 10560,จันทร์-อาทิตย์ 7.00-23.00 น. ,PTT Bangna Trad KM27 IB,"340/1 Moo1 Bangna Trad Road, Bangbor, Samutprakran 10560",Monday-Sunday 7.00-23.00 
ออโต้มอลล์ ,IC52097,14.112625,100.61784,58/854ม. 13 ต.คลองหนึ่ง อ.คลองหลาวง ปทุมธานี 12120,จันทร์-อาทิตย์ 07.00-22.00 น. ,AUTO MALL,"58/854Moo13 Klongnung klongloung, Pathumthani 12120",Monday-Sunday 07.00-22.00 
เอสโซ่วังน้อย,IC139517,14.186142,100.628349,45 หมู่ที่ 1 ถนนพหลโยธิน ตำบลลำไทร อำเภอวังน้อย จ.พระนครศรีอยุธยา 13170,ทุกวัน 7.00-23.00 น.,ESSO WANGNOI,45 Moo 1 Phaholyothin Rd.Bangsai Wongnoi Ayutthaya 13170,Every day 7.00-23.00
พอร์โต โก บางปะอิน,IC190532,14.2018134,100.6079166,80/8 หมู่ที่ 4 ถนนสายเอเชีย 32 ตำบล คลองจิก อำเภอบางปะอิน จังหวัดพระนครศรีอยุธยา 13160,จันทร์-อาทิตย์ 7.00-23.00 น. ,Porto Go Bang Pa-In,"80/8 หมู่ที่ 4 Asia Road 3, Khlong Chik, Bang Pa-in District, Phra Nakhon Si Ayutthaya 13160",Monday-Sunday 7.00-23.00 
มอเตอร์เวย์ ขาเข้า ,IC52135,13.5396538,101.0080966,85/69-70 หมู่1 ต.เขาดิน อ.บางปะกง จ.ฉะเชิงเทรา 24130,ทุกวัน 6.00-23.00 น.,MOTORWAY INBOUND,85/69-70 Moo 1 T.Kaodin A.Pangpakong Chachoengsao 24130,Every day 6.00-23.00
มอเตอร์เวย์ ขาออก,IC52134,13.539633541816,101.00928515196,45/67หมู่7 ตำบล เขาดิน อำเภอ บางปะกง จังหวัด ฉะเชิงเทรา 24130,ทุกวัน day 7.00-23.45 น.,MOTORWAY,45/67 Moo 7 Tambon Khao Din district of Chachoengsao 24130,Every day 7.00-23.45
เชลล์ ฉะเชิงเทรา,IC52155,13.539678,101.009371,สถานีบริการเชลล์ ฉะเชิงเทรา ขาออก ถนน 314 ตำบลลาดขวาง อำเภอบ้านโพธิ์ จังหวัดฉะเชิงเทรา 24140,ทุกวัน 7.00-22.00 น.,SHELL CHACHENGSAO 314 (OB),Shell Gas Station 314  Road Lad khwang Barn Pho Chachoengsao 24140,Every day 7.00-22.00
ปตท. ลำพญา,IC139527,13.79787,99.96181,ปตท. ลำพญา3 ขาเข้า ต.สระกะเทียม อ.เมืองนครปฐม จ.นครปฐม 73000,จันทร์-อาทิตย์ 7.00-22.00 น. ,PTT LAMPHAYA 3 IB,"PTT Lam Phaya 3 inbound, Sa Kakiam Subdistrict, Muang Nakhon Pathom District, Nakhon Pathom Province 73000",Monday-Sunday 7.00-22.00 
บางจากชลบุรี บายพาส,IC57221,13.413579,100.999581,สถานีบริการน้ำมันบางจาก 99/1 หมู่4 ถนนชลบุรีบายพาส ตำบลหนองไม้แดง อำเภอเมืองชลบุรี จังหวัดชลบุรี 20000,จันทร์-อาทิตย์ 07.00-22.00 น. ,BANGCHAK CHONBURI BY PASS OB,Bangchak Service Station 99/1 Moo 4 Chon Buri Bypass Road Nong Mai Daeng Sub-district Mueang Chon Buri District Chonburi Province 20000,Monday-Sunday 07.00-22.00 
ปตท ชลบุรี บายพาส,IC52145,13.342231,100.993816,สถานีบริการปตท.จิฟฟี่ บายพาส 4 บ้านสวน อำเภอเมืองชลบุรี ชลบุรี 20000,ทุกวัน 7.00-23.00 น.,PTT CHONBURI BYPASS IB,PTT Jiffy Bypass 4 Barbsuan Chonburi 20000,Every day 7.00-23.00
ปตท. ชลบุรี บายพาส,IC99905,13.372037,101.019627,สถานีบริการปตท.จิฟฟี่ บายพาส 4 บ้านสวน อำเภอเมืองชลบุรี ชลบุรี 20000,จันทร์-อาทิตย์ 07.00-21.30 น. ,PTT Chonburi Bypass,"PTT Jiffy Bypass Service Station 4, Ban Suan, Mueang Chon Buri, Chonburi 20000",Monday-Sunday 07.00-21.30 
บางจาก ศรีราชา,IC99906,13.159668,100.92419,137/102 (สถานีบริการบางจาก) ตำบลศรีราชา อ.ศรีราชา ชลบุรี 20110,จันทร์-อาทิตย์ 07.00-22.00 น. ,Bangchak Sriracha,"137/102 Bangchak Service Station, Sriracha, Si Racha, Chon Buri 20110",Monday-Sunday 07.00-22.00 
บางจาก สระบุรี,IC139519,14.41543,100.89214,สถานีบริการบางจาก สระบุรี กม94 ห้วยขมิ้น อ.หนองแค สระบุรี 18230,ทุกวัน 07.00-22.00 น.,BANGCHAK SARABURI KM 94 OB,"Bangchak Service Station, Saraburi, Km 94, Huai Khamin, Nong Khae, Saraburi 18230",Every day 07.00-22.00
ปตท. จิฟฟี่ แหลมฉบัง,IC99908,13.0549373,100.9257062,ปตท.แหลมฉบัง ทล. 3 กม 131 ชุมชนบ้านทุ่งกราด ซอย 8  ถ.สุขุมวิท ตำบลบางละมุง อำเภอบางละมุง ชลบุรี 20150,จันทร์-อาทิตย์ 07.00-22.00 น. ,PTT Jiffy Laemchabang,"PTT Jiffy Laemchabang KM131 Baan Tung Kruad Soi 8, Sukhumvit Road, Tumbon Banglamung, Amphur Banglamung, Chonburi 20150",Monday-Sunday 07.00-22.00 
ปตท สระบุรี,IC139523,14.464147,100.906775,สถานีบริการปตท ถนนพหลโยธิน กม100 สระบุรี 18000,ทุกวัน 7.00-23.00 น.,PTT SARABURI KM 100 (IB),PTT Phaholyothin KM 100 Saraburi 18000,Every day 7.00-23.00
พัทยากลาง,IC52140,12.936688,100.882879,246/3 หมู่ 9 หนองปรือ บางละมุง ชลบุรี 20150,จันทร์-อาทิตย์ 07.00-02.00 น. ,PATTAYA KLANG,246/3 Moo 9 Nongplea Banglamung Chonburi 20150,Monday-Sunday 07.00-02.00 
รอยัลการ์เด้น พัทยา ,IC52151,12.9296414,100.8777513,218 หมุ่ 10 ถ.เลียบชายหาด เมืองพัทยา บางละมุง ชลบุรี 20150,จันทร์-อาทิตย์ 07.00-24.00 น. ,ROYAL GARDEN PATTAYA (PATTAYA),"218 Moo.10 Beach, Pattaya city Banglamung Chonburi 20150",Monday-Sunday 07.00-24.00 
เอสโซ่ พัทยาใต้ (ขาเข้า),IC52119,12.9184636,100.89621,"ถ.สุขุมวิท, หนองปรือ บางละมุง ชลบุรี, 20260",จันทร์-อาทิตย์ 07.00-02.00 น. ,ESSO SOUTH PATTAYA (IB),"Sukhumvit Rd. , Nongprue , Banglamung, Chonburi 20260",Monday-Sunday 07.00-02.00 
ปตท. พีระเซอร์กิจ,IC139520,12.915153,101.022324,สถานีบริการณปตท. ทางหลวงหมายเลข 36 ตำบลโป่ง อำเภอบางละมุง ชลบุรี 20150,จันทร์-อาทิตย์ 7.00-22.00 น. ,PTT JIFFY BHIRA CIRCUIT HY 36 IB,PTT Bhiracircuit 36 Tambon Pong Banglamung Chonburi 20150,Monday-Sunday 7.00-22.00 
ปตท. มาบข่า,IC139525,12.764082,101.180018,สถานีบริการปตท.มาบข่า 54 ถ.ทางหลวงแผ่นดิน สาย36 ต.มาบข่า อ.นิคมพัฒนา จ.ระยอง 21180,จันทร์-อาทิตย์ 7.00-22.00 น. ,PTT MABKHA RAYONG,"Service Station PTT Map Kha 54 National Highway 36 Road, Map Kha Subdistrict, Nikhom Phatthana District, Rayong 21180",Monday-Sunday 7.00-22.00 
ปตท. มาบตาพุด ระยอง (ขาเข้า),IC139529,12.695847,101.195644,ปตท.มาบตาพุด ระยอง ถ.สุขุมวิท ต.เนินพระ จ.ระยอง 21000,จันทร์-อาทิตย์ 07.00-22.00 น. ,PTT Mabtapud Rayong (IB),"PTT Jiffy Maptaphut, Sukhumvit Rd, Noen Phra Sub-district, Mueang Rayong District, Rayong 21000",Monday-Sunday 07.00-22.00 
หัวหิน มาร์เก็ต วิลเลจ,IC268342,12.557841,99.960421,มาร์เก็ตวิลเลจ หัวหิน เลขที่ 234/1 หัวหิน มาร์เก็ตวิลเลจ  ถ.เพชรเกษม อ.หัวหิน ต.หัวหิน จ.ประจวบ 77110,จันทร์-อาทิตย์ 08.00-24.00 น. ,Huahin Market Village,"HUA HIN MARKET VILLAGE 234/1 PHETKASEM ROAD, Hua Hin Prachuap-Khiri-Khan 77110",Monday-Sunday 08.00-24.00 
บลูพอร์ต หัวหิน,IC268343,12.5478546,99.9619657,ศูนย์การค้าบลูพอร์ท ชั้น G 8/89 ซ.หมู่บ้านหนองแก ตำบลหนองแก อำเภอหัวหิน จังหวัดประจวบคีรีขันธ์ 77110,จันทร์-อาทิตย์ 10.00-20.00 น. ศุกร์-เสาร์ 10.00-21.00 น. ,Blu Port Hua-Hin,"Blueport Shopping Center G Floor, 8/89, Soi Nong Kae Village, Nong Kae Subdistrict, Hua Hin District, Prachuap Khiri Khan Province 77110",Monday-Sunday 10.00-20.00 Friday-Saturday 10.00-21.00 
เดอะ มอลล์ โคราช,IC114275,14.980426,102.076341,ห้อง 107 ชั้น G เดอะมอลล์โคราช เลขที่ 1242/2 ถนนมิตรภาพ อำเภอเมือง จังหวัดนครราชสีมา 30000,จันทร์-พฤหัสบดี 10.00-20.30 น. ศุกร์-อาทิตย์ 10.00-21.00 น. ,The Mall Korat,1242/2  G Floor  The Mall Korat Mittraphap Highway  Muang District Nakornrachasima 30000,Monday-Thursday 10.00-20.30 Friday-Sunday 10.00-21.00 
ตลาดต้นตาล,IC282372,16.4170933,102.8185386,เลขที่ 789/292 หมู่ที่ 17 ถนนมิตรภาพ ตำบลในเมือง อำเภอเมืองขอนแก่น จังหวัดขอนแก่น 40000,จันทร์-อาทิตย์ 07.00-02.00 น. ,Ton Tan Market,"No. 789/292 Moo 17 Ton Tan Market  Nai Mueang, Mueang Khon Kaen, Khon Kaen 40110",Monday-Sunday 07.00-02.00 
สมุยลีฟวิ่งพลาซ่า,IC52153,9.5290485,100.0600615,202/8 และ202/4  หมู่ที่2  ตำบลบ่อผุด อำเภอเกาะสมุย สุราษฎร์ธานี 84320,ทุกวัน 9.00-3.00 น.,SAMUI LIVING PLAZA,"202/8 and 202/4 Borpud ,Koh Samui ,Surat Thani 84320",Every day 9.00-3.00
ยูดี ทาวน์,IC107027,17.398664,102.804936,ยูดีทาวน์ 99/9 ถนนทองใหญ่ ตำบลหมากแข้ง อำเภอเมือง จังหวัดอุดรธานี 41000,จันทร์-อาทิตย์ 8.00-22.00 น. ,UD Town ,"UD Town 99/9 Thong Yai Road, Tambon Mak Khaeng, Amphoe Mueang, Udon Thani 41000",Monday-Sunday 8.00-22.00 
เชลล์ มงฟอร์ต,IC52158,18.76276482627,99.02291893959,สถานีบริการเชลล์ ถนน มหิดล ตำบลท่าศาลา อำเภอเมืองเชียงใหม่ จังหวัด เชียงใหม่ 50000,จันทร์-อาทิตย์ 07.00-02.00 น. ,SHELL MONTFORT (DT),Shell Mongfort Mahidol Road Tasala Chiangmai 50000,Monday-Sunday 07.00-02.00 
เอสโซ่ หางดง (ขาออก),IC52112,18.763411,98.973933,สถานีบริการเอสโซ่ เลขที่ 218 หมู่ 1 เชียงใหม่-ฮอด ป่าแดด เมืองเชียงใหม่ จังหวัดเชียงใหม่ 50100,จันทร์-อาทิตย์ 07.00-23.00 น. ,ESSO HANGDONG(OB),Esso Hangdong 218 Moo 1 Chiangmai - Hod Padad Chiangmai 50100,Monday-Sunday 07.00-23.00 
ท่าแพ เชียงใหม่,IC52163,18.787925,98.993103,2-6 ถ.ราชดำเนิน ต. ศรีภูมิ อ. เมือง เชียงใหม่ 50200,จันทร์-อาทิตย์ 08.00-24.00 น. ,THAPAE,2-6 Ratchadamnoen Rd . Chinangmai Thailand 50200,Monday-Sunday 08.00-24.00 
ปตท. แม่ริม เชียงใหม่,IC273403,18.9215583,98.9400158,ปตท.แม่ริม ต.ริมใต้ อ.แม่ริม จ.เชียงใหม่ 50180,จันทร์-อาทิตย์ 07.00-22.00 น. ,PTT Mae Rim Chaingmai,"PTT Mae Rim Chiangmai Rim Tai,Mae Rim District ,Chiangmai 50180",Monday-Sunday 07.00-22.00 
อ่าวนาง,IC57220,8.031594,98.822495,ชั้น2 อ่าวนาง ปทุมวัน อ.เมืองกระบี่ จ.กระบี่ 81180,จันทร์-อาทิตย์ 07.00-24.00 น. ,AO NANG,"2nd Floor, Ao Nang, Pathumwan, Mueang Krabi District, Krabi 81180",Monday-Sunday 07.00-24.00 
ภูเก็ตแอร์พอร์ต,IC52142,8.10633096,98.30581531,ท่าอากาศยานภูเก็ต ตำบลไม้ขาว อำเภอถลาง จังหวัดภูเก็ต 83110,ทุกวัน ตลอด 24 ชม.,PHUKET AIRPORT 3RD FLOOR AIRSIDE,Phuket Airport Maikao Talang Phuket 83110,Every day 24 hrs.
ท่าอากาศยานภูเก็ต เทอร์นอล 2 แลนด์ไซด์ ชั้น 4,IC52183,8.105475,98.305614,ท่าอากาศยานภูเก็ต : เทอมินอล 2 ระหว่างประเทศ (แลนด์ไซด์ ชั้น 4),ทุกวัน ตลอด 24 ชม.,BK_HKT-T2(LS),"Phuket Airport  - Terminal 2 International (Landside , 4th Floor)",Every day 24 hrs.
ปตท. ภูเก็ต,IC139521,8.004588,98.343011,เลขที่ 205 หมู่1 แขวงศรีสุนทร เขตถลาง จังหวัดภูเก็ต 83110,จันทร์-อาทิตย์ 7.00-22.00 น. ,PTT PHUKET,"205 /1 PTT Gas Station Sri sunthon Tambol  Thalang, Phuket 83110",Monday-Sunday 7.00-22.00 
โบ๊ท อเวนิว,IC139522,7.993093,98.305807,ต.เชิงทะเล อ.ถลาง ภูเก็ต 83110,จันทร์-อาทิตย์ 8.00-23.00 น. ,Boat Avenue,"Choeng Thale Subdistrict, Thalang District, Phuket 83110",Monday-Sunday 8.00-23.00 
ป่าตอง บางลา,IC189329,7.894638,98.295604,"25, 27 ถนนทวีวงศ์ ป่าตอง กระทู้ จังหวัด ภูเก็ต",จันทร์-อาทิตย์ 7.00-23.00 น. ,Patong Bangla,"25, 27 Thaweewong, Patong, Kathu, Phuket Province",Monday-Sunday 7.00-23.00 
จังซีลอน 1,IC52143,7.892422,98.29865,ศูนย์การค้าจังซีลอนภูเก็ต เลขที่ 181 ห้องเลขที่ 1108   ชั้น 1 ถ.ราษฏร์อุทิศ 200 ปี ต.ป่าตอง อ.กระทู้ จ. ภูเก็ต 83150,ทุกวัน 11.00-23.00 น.,PHUKET JUNGCEYLON,"Jungceylon 181,Suite 1108,Floor 1,Kathu,Kathi District,Phuket 83150",Every day 11.00-23.00
เชลล์เจ้าฟ้า,IC139516,7.868164,98.355607,สถานีบริการน้ำมันเชลล์ 90/12  หมู่2 ถนนเจ้าฟ้า ต.วิชิต อ. เมืองภูเก็ต จ. ภูเก็ต,จันทร์-อาทิตย์ 7.00-23.00 น. ,SHELL CHAOFAH WEST PHUKET,"Shell Gas Station 90/12 Moo 2 Chao Fa Road, Wichit Subdistrict, Mueang Phuket District, Phuket 83000",Monday-Sunday 7.00-23.00 
โอทอป ป่าตอง,IC52170,7.887268,98.294837,โอทอป ป่าตอง 237/9 ถ.ราษฎร์อุทิศ200ปี กะทู้ ภูเก็ต 83150,ทุกวัน 11.00-06.00 น.,Otop Patong ,Otop Patong 237/9 Ratutid 200 Year Road Kratu Phuket 83150,Every day 11.00-06.00
โอทอป ป่าตอง,IC304334,7.8872411,98.2947704,เลขที่ 237/7 โอทอป ป่าตอง ถนนราษฎร์อุทิศ200ปี ตำบลป่าตอง อำเภอกะทู้ จังหวัดภูเก็ต 83120,จันทร์-อาทิตย์ 11.00-02.00 น. ,OTOP Patong,"No. 237/7 OTOP Patong  Patong Beach Rat Uthit 200 years road, Patongsub-district, Kratu district Phuket 83120",Monday-Sunday 11.00-02.00 
หาดใหญ่ วิลเลจ,IC307487,7.029944,100.501386,เลขที่ 538 ถ. กาญจนวนิช ตำบล คอหงส์ อำเภอหาดใหญ่ สงขลา 90110,จันทร์-อาทิตย์ 08.00-22.00 น. ,Had Yai Village,"No. 538 Kanjanavanich Rd, Kho Hong, Hat Yai District, Songkhla 90110",Monday-Sunday 08.00-22.00 
